CCSDS_OMM_VERS = 2.0
CREATION_DATE  = 
ORIGINATOR     = 

OBJECT_NAME    = ISS OBJECT XW
OBJECT_ID      = 1998-067XW
CENTER_NAME    = EARTH
REF_FRAME      = TEME
TIME_SYSTEM    = UTC
MEAN_ELEMENT_THEORY = SGP/SGP4

EPOCH          = 2026-03-02T08:57:28.526976
MEAN_MOTION    = 15.66377500
ECCENTRICITY   = .00047476
INCLINATION    = 51.6250
RA_OF_ASC_NODE = 102.7876
ARG_OF_PERICENTER = 47.1988
MEAN_ANOMALY   = 312.9406

EPHEMERIS_TYPE = 0
CLASSIFICATION_TYPE = U
NORAD_CAT_ID   = 66910
ELEMENT_SET_NO = 999
REV_AT_EPOCH   = 1403
BSTAR          = .11650016E-2
MEAN_MOTION_DOT = .124725E-2
MEAN_MOTION_DDOT = 0

CCSDS_OMM_VERS = 2.0
CREATION_DATE  = 
ORIGINATOR     = 

OBJECT_NAME    = ISS OBJECT XX
OBJECT_ID      = 1998-067XX
CENTER_NAME    = EARTH
REF_FRAME      = TEME
TIME_SYSTEM    = UTC
MEAN_ELEMENT_THEORY = SGP/SGP4

EPOCH          = 2026-03-02T09:39:44.401536
MEAN_MOTION    = 15.71628066
ECCENTRICITY   = .0006901
INCLINATION    = 51.6217
RA_OF_ASC_NODE = 101.4735
ARG_OF_PERICENTER = 40.4383
MEAN_ANOMALY   = 319.7127

EPHEMERIS_TYPE = 0
CLASSIFICATION_TYPE = U
NORAD_CAT_ID   = 66911
ELEMENT_SET_NO = 999
REV_AT_EPOCH   = 1404
BSTAR          = .15590665E-2
MEAN_MOTION_DOT = .209832E-2
MEAN_MOTION_DDOT = 0

CCSDS_OMM_VERS = 2.0
CREATION_DATE  = 
ORIGINATOR     = 

OBJECT_NAME    = ISS OBJECT XY
OBJECT_ID      = 1998-067XY
CENTER_NAME    = EARTH
REF_FRAME      = TEME
TIME_SYSTEM    = UTC
MEAN_ELEMENT_THEORY = SGP/SGP4

EPOCH          = 2026-03-02T07:00:58.856832
MEAN_MOTION    = 15.62175836
ECCENTRICITY   = .00028056
INCLINATION    = 51.6268
RA_OF_ASC_NODE = 104.5116
ARG_OF_PERICENTER = 49.1750
MEAN_ANOMALY   = 310.9487

EPHEMERIS_TYPE = 0
CLASSIFICATION_TYPE = U
NORAD_CAT_ID   = 66912
ELEMENT_SET_NO = 999
REV_AT_EPOCH   = 1399
BSTAR          = .9456523E-3
MEAN_MOTION_DOT = .85145E-3
MEAN_MOTION_DDOT = 0

CCSDS_OMM_VERS = 2.0
CREATION_DATE  = 
ORIGINATOR     = 

OBJECT_NAME    = ISS OBJECT XZ
OBJECT_ID      = 1998-067XZ
CENTER_NAME    = EARTH
REF_FRAME      = TEME
TIME_SYSTEM    = UTC
MEAN_ELEMENT_THEORY = SGP/SGP4

EPOCH          = 2026-03-02T13:52:19.955136
MEAN_MOTION    = 15.51179573
ECCENTRICITY   = .000952
INCLINATION    = 51.6313
RA_OF_ASC_NODE = 107.1702
ARG_OF_PERICENTER = 162.1984
MEAN_ANOMALY   = 197.9341

EPHEMERIS_TYPE = 0
CLASSIFICATION_TYPE = U
NORAD_CAT_ID   = 67683
ELEMENT_SET_NO = 999
REV_AT_EPOCH   = 368
BSTAR          = .70185E-3
MEAN_MOTION_DOT = .41593E-3
MEAN_MOTION_DDOT = 0

CCSDS_OMM_VERS = 2.0
CREATION_DATE  = 
ORIGINATOR     = 

OBJECT_NAME    = GXIBA-1
OBJECT_ID      = 1998-067YA
CENTER_NAME    = EARTH
REF_FRAME      = TEME
TIME_SYSTEM    = UTC
MEAN_ELEMENT_THEORY = SGP/SGP4

EPOCH          = 2026-03-02T11:54:46.036224
MEAN_MOTION    = 15.53047483
ECCENTRICITY   = .00110442
INCLINATION    = 51.6300
RA_OF_ASC_NODE = 107.3750
ARG_OF_PERICENTER = 152.3200
MEAN_ANOMALY   = 207.8380

EPHEMERIS_TYPE = 0
CLASSIFICATION_TYPE = U
NORAD_CAT_ID   = 67684
ELEMENT_SET_NO = 999
REV_AT_EPOCH   = 367
BSTAR          = .11883441E-2
MEAN_MOTION_DOT = .76064E-3
MEAN_MOTION_DDOT = 0

CCSDS_OMM_VERS = 2.0
CREATION_DATE  = 
ORIGINATOR     = 

OBJECT_NAME    = CORAL
OBJECT_ID      = 1998-067YB
CENTER_NAME    = EARTH
REF_FRAME      = TEME
TIME_SYSTEM    = UTC
MEAN_ELEMENT_THEORY = SGP/SGP4

EPOCH          = 2026-03-02T09:09:48.620736
MEAN_MOTION    = 15.51449802
ECCENTRICITY   = .00115824
INCLINATION    = 51.6315
RA_OF_ASC_NODE = 108.1094
ARG_OF_PERICENTER = 157.7573
MEAN_ANOMALY   = 202.3921

EPHEMERIS_TYPE = 0
CLASSIFICATION_TYPE = U
NORAD_CAT_ID   = 67685
ELEMENT_SET_NO = 999
REV_AT_EPOCH   = 365
BSTAR          = .77682183E-3
MEAN_MOTION_DOT = .46607E-3
MEAN_MOTION_DDOT = 0

CCSDS_OMM_VERS = 2.0
CREATION_DATE  = 
ORIGINATOR     = 

OBJECT_NAME    = ISS OBJECT YC
OBJECT_ID      = 1998-067YC
CENTER_NAME    = EARTH
REF_FRAME      = TEME
TIME_SYSTEM    = UTC
MEAN_ELEMENT_THEORY = SGP/SGP4

EPOCH          = 2026-03-02T09:04:58.356480
MEAN_MOTION    = 15.51837466
ECCENTRICITY   = .00077178
INCLINATION    = 51.6316
RA_OF_ASC_NODE = 108.0894
ARG_OF_PERICENTER = 125.5885
MEAN_ANOMALY   = 234.5825

EPHEMERIS_TYPE = 0
CLASSIFICATION_TYPE = U
NORAD_CAT_ID   = 67686
ELEMENT_SET_NO = 999
REV_AT_EPOCH   = 365
BSTAR          = .85444662E-3
MEAN_MOTION_DOT = .51991E-3
MEAN_MOTION_DDOT = 0

CCSDS_OMM_VERS = 2.0
CREATION_DATE  = 
ORIGINATOR     = 

OBJECT_NAME    = LEOPARD
OBJECT_ID      = 1998-067YD
CENTER_NAME    = EARTH
REF_FRAME      = TEME
TIME_SYSTEM    = UTC
MEAN_ELEMENT_THEORY = SGP/SGP4

EPOCH          = 2026-03-02T15:22:46.244928
MEAN_MOTION    = 15.51318584
ECCENTRICITY   = .0007695
INCLINATION    = 51.6316
RA_OF_ASC_NODE = 106.8408
ARG_OF_PERICENTER = 130.3148
MEAN_ANOMALY   = 229.8515

EPHEMERIS_TYPE = 0
CLASSIFICATION_TYPE = U
NORAD_CAT_ID   = 67687
ELEMENT_SET_NO = 999
REV_AT_EPOCH   = 361
BSTAR          = .69517E-3
MEAN_MOTION_DOT = .41373E-3
MEAN_MOTION_DDOT = 0

CCSDS_OMM_VERS = 2.0
CREATION_DATE  = 
ORIGINATOR     = 

OBJECT_NAME    = ISS OBJECT YE
OBJECT_ID      = 1998-067YE
CENTER_NAME    = EARTH
REF_FRAME      = TEME
TIME_SYSTEM    = UTC
MEAN_ELEMENT_THEORY = SGP/SGP4

EPOCH          = 2026-03-02T12:12:35.467776
MEAN_MOTION    = 15.51667522
ECCENTRICITY   = .00076399
INCLINATION    = 51.6317
RA_OF_ASC_NODE = 107.4591
ARG_OF_PERICENTER = 126.6437
MEAN_ANOMALY   = 233.5256

EPHEMERIS_TYPE = 0
CLASSIFICATION_TYPE = U
NORAD_CAT_ID   = 67688
ELEMENT_SET_NO = 999
REV_AT_EPOCH   = 359
BSTAR          = .83945719E-3
MEAN_MOTION_DOT = .5075E-3
MEAN_MOTION_DDOT = 0

CCSDS_OMM_VERS = 2.0
CREATION_DATE  = 
ORIGINATOR     = 

OBJECT_NAME    = CREW DRAGON 12
OBJECT_ID      = 2026-031A
CENTER_NAME    = EARTH
REF_FRAME      = TEME
TIME_SYSTEM    = UTC
MEAN_ELEMENT_THEORY = SGP/SGP4

EPOCH          = 2026-03-02T22:19:59.516544
MEAN_MOTION    = 15.48408287
ECCENTRICITY   = .00082151
INCLINATION    = 51.6319
RA_OF_ASC_NODE = 105.7724
ARG_OF_PERICENTER = 150.8374
MEAN_ANOMALY   = 209.3075

EPHEMERIS_TYPE = 0
CLASSIFICATION_TYPE = U
NORAD_CAT_ID   = 67796
ELEMENT_SET_NO = 999
REV_AT_EPOCH   = 55502
BSTAR          = .18074912E-3
MEAN_MOTION_DOT = .9325E-4
MEAN_MOTION_DDOT = 0

